[{"OBJECT_NAME":"NOAA 17","OBJECT_ID":"2002-032A","EPOCH":"2026-03-03T12:02:53.524032","MEAN_MOTION":14.26184862,"ECCENTRICITY":0.0010731,"INCLINATION":98.853,"RA_OF_ASC_NODE":27.0666,"ARG_OF_PERICENTER":301.4138,"MEAN_ANOMALY":58.5991,"EPHEMERIS_TYPE":0,"CLASSIFICATION_TYPE":"U","NORAD_CAT_ID":27453,"ELEMENT_SET_NO":999,"REV_AT_EPOCH":23192,"BSTAR":0.00014383,"MEAN_MOTION_DOT":2.99e-6,"MEAN_MOTION_DDOT":0},{"OBJECT_NAME":"NOAA 18","OBJECT_ID":"2005-018A","EPOCH":"2026-03-03T10:55:22.952064","MEAN_MOTION":14.13709412,"ECCENTRICITY":0.0015352,"INCLINATION":98.8166,"RA_OF_ASC_NODE":143.6495,"ARG_OF_PERICENTER":91.9774,"MEAN_ANOMALY":268.3157,"EPHEMERIS_TYPE":0,"CLASSIFICATION_TYPE":"U","NORAD_CAT_ID":28654,"ELEMENT_SET_NO":999,"REV_AT_EPOCH":7137,"BSTAR":6.7529e-5,"MEAN_MOTION_DOT":8.4e-7,"MEAN_MOTION_DDOT":0},{"OBJECT_NAME":"NOAA 19","OBJECT_ID":"2009-005A","EPOCH":"2026-03-03T10:26:42.579456","MEAN_MOTION":14.13455373,"ECCENTRICITY":0.0013134,"INCLINATION":98.9619,"RA_OF_ASC_NODE":133.1955,"ARG_OF_PERICENTER":333.3036,"MEAN_ANOMALY":26.7458,"EPHEMERIS_TYPE":0,"CLASSIFICATION_TYPE":"U","NORAD_CAT_ID":33591,"ELEMENT_SET_NO":999,"REV_AT_EPOCH":87954,"BSTAR":5.8973e-5,"MEAN_MOTION_DOT":6.6e-7,"MEAN_MOTION_DDOT":0},{"OBJECT_NAME":"SUOMI NPP","OBJECT_ID":"2011-061A","EPOCH":"2026-03-03T11:16:55.381152","MEAN_MOTION":14.19541404,"ECCENTRICITY":4.37e-5,"INCLINATION":98.7863,"RA_OF_ASC_NODE":4.1224,"ARG_OF_PERICENTER":290.8006,"MEAN_ANOMALY":69.3123,"EPHEMERIS_TYPE":0,"CLASSIFICATION_TYPE":"U","NORAD_CAT_ID":37849,"ELEMENT_SET_NO":999,"REV_AT_EPOCH":74344,"BSTAR":6.7593e-5,"MEAN_MOTION_DOT":9.8e-7,"MEAN_MOTION_DDOT":0},{"OBJECT_NAME":"NOAA 20 (JPSS-1)","OBJECT_ID":"2017-073A","EPOCH":"2026-03-03T09:56:30.241824","MEAN_MOTION":14.1953414,"ECCENTRICITY":9.13e-5,"INCLINATION":98.7685,"RA_OF_ASC_NODE":2.8641,"ARG_OF_PERICENTER":145.5401,"MEAN_ANOMALY":214.5834,"EPHEMERIS_TYPE":0,"CLASSIFICATION_TYPE":"U","NORAD_CAT_ID":43013,"ELEMENT_SET_NO":999,"REV_AT_EPOCH":42946,"BSTAR":6.8391e-5,"MEAN_MOTION_DOT":1.0e-6,"MEAN_MOTION_DDOT":0},{"OBJECT_NAME":"NOAA 21 (JPSS-2)","OBJECT_ID":"2022-150A","EPOCH":"2026-03-03T10:46:34.978944","MEAN_MOTION":14.19550234,"ECCENTRICITY":0.0002506,"INCLINATION":98.7548,"RA_OF_ASC_NODE":2.7866,"ARG_OF_PERICENTER":117.6644,"MEAN_ANOMALY":242.4786,"EPHEMERIS_TYPE":0,"CLASSIFICATION_TYPE":"U","NORAD_CAT_ID":54234,"ELEMENT_SET_NO":999,"REV_AT_EPOCH":17154,"BSTAR":7.9371e-5,"MEAN_MOTION_DOT":1.23e-6,"MEAN_MOTION_DDOT":0}]
