NOAA 17                 
1 27453U 02032A   26062.50200838  .00000299  00000+0  14383-3 0  9991
2 27453  98.8530  27.0666 0010731 301.4138  58.5991 14.26184862231921
NOAA 18                 
1 28654U 05018A   26062.45512676  .00000084  00000+0  67529-4 0  9995
2 28654  98.8166 143.6495 0015352  91.9774 268.3157 14.13709412 71372
NOAA 19                 
1 33591U 09005A   26062.43521504  .00000066  00000+0  58973-4 0  9992
2 33591  98.9619 133.1955 0013134 333.3036  26.7458 14.13455373879546
SUOMI NPP               
1 37849U 11061A   26062.47008543  .00000098  00000+0  67593-4 0  9997
2 37849  98.7863   4.1224 0000437 290.8006  69.3123 14.19541404743445
NOAA 20 (JPSS-1)        
1 43013U 17073A   26062.41423891  .00000100  00000+0  68391-4 0  9998
2 43013  98.7685   2.8641 0000913 145.5401 214.5834 14.19534140429464
NOAA 21 (JPSS-2)        
1 54234U 22150A   26062.44901596  .00000123  00000+0  79371-4 0  9998
2 54234  98.7548   2.7866 0002506 117.6644 242.4786 14.19550234171547
